ONEWEB-0012             
1 44057U 19010A   25079.70330705 -.00000382  00000+0 -10336-2 0  9998
2 44057  87.9079 319.2023 0002245  90.2113 269.9276 13.16594271291924
ONEWEB-0010             
1 44058U 19010B   25079.72865625  .00000119  00000+0  27695-3 0  9998
2 44058  87.9083 319.1798 0001886  68.0411 292.0920 13.16594616291940
ONEWEB-0008             
1 44059U 19010C   25079.67797755 -.00000276  00000+0 -75541-3 0  9990
2 44059  87.9082 319.1905 0001523  87.2170 272.9135 13.16592878292059
ONEWEB-0007             
1 44060U 19010D   25079.80918876  .00000207  00000+0  51476-3 0  9999
2 44060  87.9139 349.5434 0002158  76.6219 283.5152 13.15550927291761
ONEWEB-0006             
1 44061U 19010E   25079.81313691  .00000222  00000+0  55541-3 0  9999
2 44061  87.9131 349.5004 0001978  73.8515 286.2833 13.15552113291815
ONEWEB-0011             
1 44062U 19010F   25079.78304995 -.00000032  00000+0 -11902-3 0  9997
2 44062  87.9129 349.5122 0001690  70.0701 290.0611 13.15549113291836
ONEWEB-0013             
1 45131U 20008A   25079.66478893 -.00000718  00000+0 -21222-2 0  9996
2 45131  87.8616 144.2882 0002864 113.3361 246.8067 13.09418113247477
ONEWEB-0017             
1 45132U 20008B   25080.12340469  .00000577  00000+0  16154-2 0  9996
2 45132  87.8834 126.5959 0001852  87.6348 272.4991 13.10371465249385
